ONEWEB-0395             
1 50475U 21132G   26204.17910537 -.00000089  00000+0 -28703-3 0  9998
2 50475  87.8892  13.8993 0001841  84.9637 275.1701 13.11415967220431
ONEWEB-0396             
1 50476U 21132H   26204.28446101  .00000011  00000+0 -52907-5 0  9991
2 50476  87.9204 328.2796 0001780  98.5098 261.6236 13.18687099226396
ONEWEB-0397             
1 50477U 21132J   26204.29963023  .00000088  00000+0  19049-3 0  9991
2 50477  87.9204 328.2765 0001635 101.7832 258.3484 13.18686947226372
ONEWEB-0398             
1 50478U 21132K   26203.99431886  .00000486  00000+0  13362-2 0  9998
2 50478  87.8898  13.9297 0002049  87.1732 272.9631 13.11418101220306
ONEWEB-0399             
1 50479U 21132L   26203.90445376 -.00000005  00000+0 -50234-4 0  9999
2 50479  87.8889  13.9589 0001366  84.4354 275.6929 13.11418978220281
ONEWEB-0400             
1 50480U 21132M   26204.05008628  .00000025  00000+0  29662-4 0  9994
2 50480  87.9203 328.3158 0002044  96.0451 264.0914 13.18685967226339
ONEWEB-0401             
1 50481U 21132N   26204.32324293  .00000060  00000+0  11998-3 0  9995
2 50481  87.9206 328.2591 0001851 107.3158 252.8176 13.18686523226376
ONEWEB-0402             
1 50482U 21132P   26203.60325364  .00000113  00000+0  25422-3 0  9992
2 50482  87.9204 328.3907 0001748 113.5387 246.5929 13.18684941226306
ONEWEB-0403             
1 50483U 21132Q   26204.31143948 -.00000001  00000+0 -34496-4 0  9998
2 50483  87.9202 328.2745 0001821  96.4841 263.6499 13.18686611226353
ONEWEB-0404             
1 50484U 21132R   26204.19097959 -.00000544  00000+0 -15711-2 0  9994
2 50484  87.8893  13.8986 0001691  82.1265 278.0055 13.11416144220414
ONEWEB-0405             
1 50485U 21132S   26204.32493194  .00000040  00000+0  69849-4 0  9993
2 50485  87.9204 328.2572 0002320  93.8231 266.3167 13.18686267226757
ONEWEB-0406             
1 50486U 21132T   26204.31649037  .00000039  00000+0  65195-4 0  9990
2 50486  87.9199 328.2732 0001555  85.1193 275.0116 13.18686894226385
ONEWEB-0407             
1 50487U 21132U   26204.30974538  .00000067  00000+0  13679-3 0  9997
2 50487  87.9206 328.2679 0002033 103.5317 256.6042 13.18684513226323
ONEWEB-0409             
1 50488U 21132V   26204.03669245 -.00000516  00000+0 -14907-2 0  9999
2 50488  87.8896  13.9189 0001772  82.6728 277.4601 13.11416405220281
ONEWEB-0412             
1 50489U 21132W   26204.29794640  .00000037  00000+0  61849-4 0  9991
2 50489  87.9203 328.2775 0001761 108.6841 251.4483 13.18686531226418
ONEWEB-0413             
1 50490U 21132X   26204.30300512  .00000025  00000+0  29801-4 0  9995
2 50490  87.9197 328.2721 0001936 108.1050 252.0293 13.18684863226359
ONEWEB-0414             
1 50491U 21132Y   26204.28782610  .00000010  00000+0 -76473-5 0  9999
2 50491  87.9205 328.2612 0001761 102.1505 257.9824 13.18687418226380
ONEWEB-0417             
1 50492U 21132Z   26204.29626156  .00000074  00000+0  15510-3 0  9995
2 50492  87.9198 328.2761 0001764  93.2046 266.9288 13.18684874226365
ONEWEB-0418             
1 50493U 21132AA  26204.30623996  .00000052  00000+0  99189-4 0  9998
2 50493  87.9201 328.2756 0001763  91.7777 268.3557 13.18686192226425
ONEWEB-0419             
1 50494U 21132AB  26203.79424536 -.00000015  00000+0 -69802-4 0  9990
2 50494  87.9200 328.3785 0002028  92.1794 267.9571 13.18665868226278
ONEWEB-0420             
1 50495U 21132AC  26203.30311940  .00000094  00000+0  20470-3 0  9994
2 50495  87.9194 328.4760 0002059 102.7626 257.3736 13.18684623226200
ONEWEB-0421             
1 50496U 21132AD  26204.28278488  .00000073  00000+0  15176-3 0  9996
2 50496  87.9204 328.2800 0001581 106.5289 253.6017 13.18686375226377
ONEWEB-0424             
1 50497U 21132AE  26204.31986783  .00000020  00000+0  18018-4 0  9996
2 50497  87.9203 328.2721 0002136  91.1759 268.9618 13.18686704226403
ONEWEB-0426             
1 50498U 21132AF  26204.27855456 -.00000548  00000+0 -14224-2 0  9994
2 50498  87.9202 328.2712 0001217  87.7738 272.3534 13.18679203226345
ONEWEB-0427             
1 50499U 21132AG  26204.31818297  .00000060  00000+0  12019-3 0  9990
2 50499  87.9206 328.2528 0001750  93.4366 266.6967 13.18686810226379
ONEWEB-0429             
1 50500U 21132AH  26204.30468778  .00000020  00000+0  17158-4 0  9993
2 50500  87.9197 328.2767 0001977 101.7144 258.4210 13.18684572226344
ONEWEB-0430             
1 50501U 21132AJ  26204.29288096  .00000054  00000+0  10308-3 0  9991
2 50501  87.9191 328.2779 0002203 102.2403 257.8976 13.18685288226380
ONEWEB-0432             
1 50502U 21132AK  26203.74476171 -.00000010  00000+0 -59151-4 0  9998
2 50502  87.9204 328.3740 0002314  94.8318 265.3079 13.18686350226265
ONEWEB-0440             
1 50503U 21132AL  26204.31312280  .00000057  00000+0  11147-3 0  9994
2 50503  87.9205 328.2726 0001803 108.7739 251.3589 13.18684830226334
ONEWEB-0450             
1 50504U 21132AM  26204.30651189  .00000034  00000+0  52359-4 0  9994
2 50504  87.9194 328.2756 0002047 102.3250 257.8111 13.18686847226369
