OBJECT_NAME,OBJECT_ID,EPOCH,MEAN_MOTION,ECCENTRICITY,INCLINATION,RA_OF_ASC_NODE,ARG_OF_PERICENTER,MEAN_ANOMALY,EPHEMERIS_TYPE,CLASSIFICATION_TYPE,NORAD_CAT_ID,ELEMENT_SET_NO,REV_AT_EPOCH,BSTAR,MEAN_MOTION_DOT,MEAN_MOTION_DDOT
ONEWEB-0395,2021-132G,2026-07-23T04:17:54.703968,13.11415967,.0001841,87.8892,13.8993,84.9637,275.1701,0,U,50475,999,22043,-.28703022E-3,-.89E-6,0
ONEWEB-0396,2021-132H,2026-07-23T06:49:37.431264,13.18687099,.00017809,87.9204,328.2796,98.5098,261.6236,0,U,50476,999,22639,-.5290701E-5,.11E-6,0
ONEWEB-0397,2021-132J,2026-07-23T07:11:28.051872,13.18686947,.00016359,87.9204,328.2765,101.7832,258.3484,0,U,50477,999,22637,.19048624E-3,.88E-6,0
ONEWEB-0398,2021-132K,2026-07-22T23:51:49.149504,13.11418101,.00020493,87.8898,13.9297,87.1732,272.9631,0,U,50478,999,22030,.13361804E-2,.486E-5,0
ONEWEB-0399,2021-132L,2026-07-22T21:42:24.804864,13.11418978,.00013668,87.8889,13.9589,84.4354,275.6929,0,U,50479,999,22028,-.50233787E-4,-.5E-7,0
ONEWEB-0400,2021-132M,2026-07-23T01:12:07.454592,13.18685967,.00020441,87.9203,328.3158,96.0451,264.0914,0,U,50480,999,22633,.29661959E-4,.25E-6,0
ONEWEB-0401,2021-132N,2026-07-23T07:45:28.189152,13.18686523,.0001851,87.9206,328.2591,107.3158,252.8176,0,U,50481,999,22637,.11997545E-3,.6E-6,0
ONEWEB-0402,2021-132P,2026-07-22T14:28:41.114496,13.18684941,.00017481,87.9204,328.3907,113.5387,246.5929,0,U,50482,999,22630,.25422034E-3,.113E-5,0
ONEWEB-0403,2021-132Q,2026-07-23T07:28:28.371072,13.18686611,.00018214,87.9202,328.2745,96.4841,263.6499,0,U,50483,999,22635,-.34496257E-4,-.1E-7,0
ONEWEB-0404,2021-132R,2026-07-23T04:35:00.636576,13.11416144,.0001691,87.8893,13.8986,82.1265,278.0055,0,U,50484,999,22041,-.15711397E-2,-.544E-5,0
ONEWEB-0405,2021-132S,2026-07-23T07:47:54.119616,13.18686267,.00023204,87.9204,328.2572,93.8231,266.3167,0,U,50485,999,22675,.69849323E-4,.4E-6,0
ONEWEB-0406,2021-132T,2026-07-23T07:35:44.767968,13.18686894,.00015551,87.9199,328.2732,85.1193,275.0116,0,U,50486,999,22638,.65194699E-4,.39E-6,0
ONEWEB-0407,2021-132U,2026-07-23T07:26:02.000832,13.18684513,.00020339,87.9206,328.2679,103.5317,256.6042,0,U,50487,999,22632,.13679201E-3,.67E-6,0
ONEWEB-0409,2021-132V,2026-07-23T00:52:50.227680,13.11416405,.00017728,87.8896,13.9189,82.6728,277.4601,0,U,50488,999,22028,-.14906964E-2,-.516E-5,0
ONEWEB-0412,2021-132W,2026-07-23T07:09:02.568960,13.18686531,.00017616,87.9203,328.2775,108.6841,251.4483,0,U,50489,999,22641,.61849304E-4,.37E-6,0
ONEWEB-0413,2021-132X,2026-07-23T07:16:19.642368,13.18684863,.00019361,87.9197,328.2721,108.1050,252.0293,0,U,50490,999,22635,.29800946E-4,.25E-6,0
ONEWEB-0414,2021-132Y,2026-07-23T06:54:28.175040,13.18687418,.00017618,87.9205,328.2612,102.1505,257.9824,0,U,50491,999,22638,-.7647312E-5,.1E-6,0
ONEWEB-0417,2021-132Z,2026-07-23T07:06:36.998784,13.18684874,.00017643,87.9198,328.2761,93.2046,266.9288,0,U,50492,999,22636,.15509692E-3,.74E-6,0
ONEWEB-0418,2021-132AA,2026-07-23T07:20:59.132544,13.18686192,.00017634,87.9201,328.2756,91.7777,268.3557,0,U,50493,999,22642,.99188591E-4,.52E-6,0
ONEWEB-0419,2021-132AB,2026-07-22T19:03:42.799104,13.18665868,.00020289,87.9200,328.3785,92.1794,267.9571,0,U,50494,999,22627,-.69802131E-4,-.15E-6,0
ONEWEB-0420,2021-132AC,2026-07-22T07:16:29.516160,13.18684623,.00020593,87.9194,328.4760,102.7626,257.3736,0,U,50495,999,22620,.20469672E-3,.94E-6,0
ONEWEB-0421,2021-132AD,2026-07-23T06:47:12.613632,13.18686375,.00015818,87.9204,328.2800,106.5289,253.6017,0,U,50496,999,22637,.1517596E-3,.73E-6,0
ONEWEB-0424,2021-132AE,2026-07-23T07:40:36.580512,13.18686704,.00021361,87.9203,328.2721,91.1759,268.9618,0,U,50497,999,22640,.18018236E-4,.2E-6,0
ONEWEB-0426,2021-132AF,2026-07-23T06:41:07.113984,13.18679203,.00012171,87.9202,328.2712,87.7738,272.3534,0,U,50498,999,22634,-.14224196E-2,-.548E-5,0
ONEWEB-0427,2021-132AG,2026-07-23T07:38:11.008608,13.18686810,.00017506,87.9206,328.2528,93.4366,266.6967,0,U,50499,999,22637,.12019195E-3,.6E-6,0
ONEWEB-0429,2021-132AH,2026-07-23T07:18:45.024192,13.18684572,.00019774,87.9197,328.2767,101.7144,258.4210,0,U,50500,999,22634,.17158481E-4,.2E-6,0
ONEWEB-0430,2021-132AJ,2026-07-23T07:01:44.914944,13.18685288,.00022037,87.9191,328.2779,102.2403,257.8976,0,U,50501,999,22638,.10307902E-3,.54E-6,0
ONEWEB-0432,2021-132AK,2026-07-22T17:52:27.411744,13.18686350,.00023147,87.9204,328.3740,94.8318,265.3079,0,U,50502,999,22626,-.5915147E-4,-.1E-6,0
ONEWEB-0440,2021-132AL,2026-07-23T07:30:53.809920,13.18684830,.00018031,87.9205,328.2726,108.7739,251.3589,0,U,50503,999,22633,.11147475E-3,.57E-6,0
ONEWEB-0450,2021-132AM,2026-07-23T07:21:22.627296,13.18686847,.00020474,87.9194,328.2756,102.3250,257.8111,0,U,50504,999,22636,.52358834E-4,.34E-6,0
